STARLINK-36544          
1 67517U 26012AA  26040.58334491 -.01852118  00000+0 -26498-1 0  9993
2 67517  42.9993 114.1193 0001103 271.6245  25.3180 15.58634625  4554
STARLINK-36412          
1 67518U 26012AB  26040.58334491 -.01856002  00000+0 -27362-1 0  9991
2 67518  42.9996 114.0990 0001177 276.3206  28.4806 15.57854398  4494
STARLINK-36415          
1 67519U 26012AC  26040.58334491 -.01854627  00000+0 -27133-1 0  9999
2 67519  42.9999 114.0712 0001243 271.5360  43.8170 15.58052937  4701
STARLINK-36547          
1 67520U 26012AD  26040.58334491 -.01855801  00000+0 -27547-1 0  9995
2 67520  43.0000 114.1192 0001129 278.1882  18.2351 15.57674432  4498
STARLINK-36444          
1 67521U 26012AE  26040.58334491 -.02029421  00000+0 -31721-1 0  9997
2 67521  42.9998 114.2232 0000702 301.6193 313.0123 15.56068578  4492
HULIANWANG DIGUI-146    
1 67522U 26013A   26039.66906079 -.00000016  00000+0  11721-3 0  9999
2 67522  50.0077 103.7562 0001969   8.0103 352.0823 13.82461331  2843
HULIANWANG DIGUI-147    
1 67523U 26013B   26039.37839769 -.00000018  00000+0  11370-3 0  9991
2 67523  50.0070 104.8767 0000803 347.2964  12.7911 13.83183237  2806
HULIANWANG DIGUI-148    
1 67524U 26013C   26039.51929608  .00000004  00000+0  13384-3 0  9991
2 67524  50.0181 104.3957 0002833 153.2013 206.9030 13.83304725  2829
HULIANWANG DIGUI-149    
1 67525U 26013D   26039.66118013 -.00000003  00000+0  12756-3 0  9990
2 67525  50.0083 103.7107 0001163  77.8678 282.2348 13.83196814  2843
HULIANWANG DIGUI-150    
1 67526U 26013E   26040.30529396 -.00000011  00000+0  12099-3 0  9993
2 67526  50.0027 101.1142 0000690  74.8065 285.2907 13.82882439  2954
HULIANWANG DIGUI-151    
1 67527U 26013F   26040.23197926  .00000022  00000+0  14529-3 0  9997
2 67527  50.0216 101.4104 0002611 147.2392 212.8667 13.85244974  2924
HULIANWANG DIGUI-152    
1 67528U 26013G   26039.36470613  .00000016  00000+0  14214-3 0  9991
2 67528  50.0066 104.7990 0000984  46.0388 314.0590 13.84453091  2807
